{"type": "FeatureCollection", "features": [ {"type": "Feature", "properties": {"norad_id": 35744, "name": "IRIDIUM 33 DEB", "group": "iridium-33-debris", "lat": 11.29084673632569, "lon": -34.47305066658935, "alt_km": 673.518312996006, "timestamp": "2025-12-14T03:55:53.173023+00:00", "meta": {"OBJECT_NAME": "IRIDIUM 33 DEB", "OBJECT_ID": "1997-051RX", "EPOCH": "2025-12-12T09:25:56.133120", "MEAN_MOTION": 14.7099084, "ECCENTRICITY": 0.00202544, "INCLINATION": 86.3288, "RA_OF_ASC_NODE": 325.5924, "ARG_OF_PERICENTER": 193.3769, "MEAN_ANOMALY": 166.6913, "EPHEMERIS_TYPE": 0, "CLASSIFICATION_TYPE": "U", "NORAD_CAT_ID": 35744, "ELEMENT_SET_NO": 999, "REV_AT_EPOCH": 87326, "BSTAR": 0.0017280488, "MEAN_MOTION_DOT": 0.00010659, "MEAN_MOTION_DDOT": 0}, "tle": {"line1": "1 35744U 97051RX  25346.39301080  .00010659  00000+0  17280-2 0  9999", "line2": "2 35744  86.3288 325.5924 0020254 193.3769 166.6913 14.70990840873261"}}, "geometry": {"type": "Point", "coordinates": [-34.47305066658935, 11.29084673632569]}}, {"type": "Feature", "properties": {"norad_id": 35797, "name": "IRIDIUM 33 DEB", "group": "iridium-33-debris", "lat": 20.15026193019996, "lon": 147.97184497748972, "alt_km": 611.6274735547559, "timestamp": "2025-12-14T03:55:53.173033+00:00", "meta": {"OBJECT_NAME": "IRIDIUM 33 DEB", "OBJECT_ID": "1997-051SF", "EPOCH": "2025-12-12T05:51:50.415264", "MEAN_MOTION": 14.82743783, "ECCENTRICITY": 0.00133704, "INCLINATION": 86.3362, "RA_OF_ASC_NODE": 330.2007, "ARG_OF_PERICENTER": 149.5686, "MEAN_ANOMALY": 210.6315, "EPHEMERIS_TYPE": 0, "CLASSIFICATION_TYPE": "U", "NORAD_CAT_ID": 35797, "ELEMENT_SET_NO": 999, "REV_AT_EPOCH": 87333, "BSTAR": 0.0026694194, "MEAN_MOTION_DOT": 0.00021655, "MEAN_MOTION_DDOT": 0}, "tle": {"line1": "1 35797U 97051SF  25346.24433351  .00021655  00000+0  26694-2 0  9995", "line2": "2 35797  86.3362 330.2007 0013370 149.5686 210.6315 14.82743783873338"}}, "geometry": {"type": "Point", "coordinates": [147.97184497748972, 20.15026193019996]}}, {"type": "Feature", "properties": {"norad_id": 35806, "name": "IRIDIUM 33 DEB", "group": "iridium-33-debris", "lat": -24.899871891769713, "lon": 18.30101993182258, "alt_km": 708.3274609393911, "timestamp": "2025-12-14T03:55:53.173043+00:00", "meta": {"OBJECT_NAME": "IRIDIUM 33 DEB", "OBJECT_ID": "1997-051SQ", "EPOCH": "2025-12-10T20:56:47.284800", "MEAN_MOTION": 14.5731398, "ECCENTRICITY": 0.0016091, "INCLINATION": 86.344, "RA_OF_ASC_NODE": 21.4504, "ARG_OF_PERICENTER": 81.1516, "MEAN_ANOMALY": 279.1514, "EPHEMERIS_TYPE": 0, "CLASSIFICATION_TYPE": "U", "NORAD_CAT_ID": 35806, "ELEMENT_SET_NO": 999, "REV_AT_EPOCH": 86297, "BSTAR": 0.0016785, "MEAN_MOTION_DOT": 7.632e-05, "MEAN_MOTION_DDOT": 0}, "tle": {"line1": "1 35806U 97051SQ  25344.87276950  .00007632  00000+0  16785-2 0  9992", "line2": "2 35806  86.3440  21.4504 0016091  81.1516 279.1514 14.57313980862976"}}, "geometry": {"type": "Point", "coordinates": [18.30101993182258, -24.899871891769713]}}, {"type": "Feature", "properties": {"norad_id": 35809, "name": "IRIDIUM 33 DEB", "group": "iridium-33-debris", "lat": 73.40598413951776, "lon": -12.85725234780035, "alt_km": 642.4154227905201, "timestamp": "2025-12-14T03:55:53.173053+00:00", "meta": {"OBJECT_NAME": "IRIDIUM 33 DEB", "OBJECT_ID": "1997-051ST", "EPOCH": "2025-12-10T16:35:56.421600", "MEAN_MOTION": 14.75629145, "ECCENTRICITY": 0.00097103, "INCLINATION": 86.329, "RA_OF_ASC_NODE": 336.2813, "ARG_OF_PERICENTER": 251.0565, "MEAN_ANOMALY": 108.9602, "EPHEMERIS_TYPE": 0, "CLASSIFICATION_TYPE": "U", "NORAD_CAT_ID": 35809, "ELEMENT_SET_NO": 999, "REV_AT_EPOCH": 86777, "BSTAR": 0.0026432017, "MEAN_MOTION_DOT": 0.00018102, "MEAN_MOTION_DDOT": 0}, "tle": {"line1": "1 35809U 97051ST  25344.69162525  .00018102  00000+0  26432-2 0  9991", "line2": "2 35809  86.3290 336.2813 0009710 251.0565 108.9602 14.75629145867777"}}, "geometry": {"type": "Point", "coordinates": [-12.85725234780035, 73.40598413951776]}}, {"type": "Feature", "properties": {"norad_id": 35846, "name": "IRIDIUM 33 DEB", "group": "iridium-33-debris", "lat": 48.04494679341345, "lon": 62.27730881170937, "alt_km": 749.927293843697, "timestamp": "2025-12-14T03:55:53.173063+00:00", "meta": {"OBJECT_NAME": "IRIDIUM 33 DEB", "OBJECT_ID": "1997-051SW", "EPOCH": "2025-12-13T04:24:40.644000", "MEAN_MOTION": 14.43162618, "ECCENTRICITY": 0.00189039, "INCLINATION": 86.3746, "RA_OF_ASC_NODE": 58.6513, "ARG_OF_PERICENTER": 168.4314, "MEAN_ANOMALY": 191.7326, "EPHEMERIS_TYPE": 0, "CLASSIFICATION_TYPE": "U", "NORAD_CAT_ID": 35846, "ELEMENT_SET_NO": 999, "REV_AT_EPOCH": 71335, "BSTAR": 0.00090270537, "MEAN_MOTION_DOT": 3.057e-05, "MEAN_MOTION_DDOT": 0}, "tle": {"line1": "1 35846U 97051SW  25347.18380375  .00003057  00000+0  90271-3 0  9990", "line2": "2 35846  86.3746  58.6513 0018903 168.4314 191.7326 14.43162618713352"}}, "geometry": {"type": "Point", "coordinates": [62.27730881170937, 48.04494679341345]}}, {"type": "Feature", "properties": {"norad_id": 35848, "name": "IRIDIUM 33 DEB", "group": "iridium-33-debris", "lat": 41.19840902823863, "lon": 18.65169391837147, "alt_km": 634.6118682757233, "timestamp": "2025-12-14T03:55:53.173073+00:00", "meta": {"OBJECT_NAME": "IRIDIUM 33 DEB", "OBJECT_ID": "1997-051SY", "EPOCH": "2025-12-11T20:31:22.881216", "MEAN_MOTION": 14.78606603, "ECCENTRICITY": 0.0007707, "INCLINATION": 86.3908, "RA_OF_ASC_NODE": 16.5221, "ARG_OF_PERICENTER": 192.3234, "MEAN_ANOMALY": 167.7799, "EPHEMERIS_TYPE": 0, "CLASSIFICATION_TYPE": "U", "NORAD_CAT_ID": 35848, "ELEMENT_SET_NO": 999, "REV_AT_EPOCH": 66677, "BSTAR": 0.0023841, "MEAN_MOTION_DOT": 0.00017502, "MEAN_MOTION_DDOT": 0}, "tle": {"line1": "1 35848U 97051SY  25345.85512594  .00017502  00000+0  23841-2 0  9992", "line2": "2 35848  86.3908  16.5221 0007707 192.3234 167.7799 14.78606603666775"}}, "geometry": {"type": "Point", "coordinates": [18.65169391837147, 41.19840902823863]}}, {"type": "Feature", "properties": {"norad_id": 35850, "name": "IRIDIUM 33 DEB", "group": "iridium-33-debris", "lat": 8.324280408115833, "lon": -15.866274578061807, "alt_km": 640.5471183859117, "timestamp": "2025-12-14T03:55:53.173084+00:00", "meta": {"OBJECT_NAME": "IRIDIUM 33 DEB", "OBJECT_ID": "1997-051TA", "EPOCH": "2025-12-06T07:30:15.621984", "MEAN_MOTION": 14.78601393, "ECCENTRICITY": 0.00083892, "INCLINATION": 86.3487, "RA_OF_ASC_NODE": 347.1693, "ARG_OF_PERICENTER": 210.267, "MEAN_ANOMALY": 149.8067, "EPHEMERIS_TYPE": 0, "CLASSIFICATION_TYPE": "U", "NORAD_CAT_ID": 35850, "ELEMENT_SET_NO": 999, "REV_AT_EPOCH": 71262, "BSTAR": 0.0028291764, "MEAN_MOTION_DOT": 0.00020775, "MEAN_MOTION_DDOT": 0}, "tle": {"line1": "1 35850U 97051TA  25340.31268081  .00020775  00000+0  28292-2 0  9991", "line2": "2 35850  86.3487 347.1693 0008389 210.2670 149.8067 14.78601393712623"}}, "geometry": {"type": "Point", "coordinates": [-15.866274578061807, 8.324280408115833]}}, {"type": "Feature", "properties": {"norad_id": 35915, "name": "IRIDIUM 33 DEB", "group": "iridium-33-debris", "lat": -42.06460171489439, "lon": -21.002162798056435, "alt_km": 638.3853383274454, "timestamp": "2025-12-14T03:55:53.173094+00:00", "meta": {"OBJECT_NAME": "IRIDIUM 33 DEB", "OBJECT_ID": "1997-051TY", "EPOCH": "2025-12-07T18:02:16.498176", "MEAN_MOTION": 14.80542095, "ECCENTRICITY": 0.00101746, "INCLINATION": 86.3429, "RA_OF_ASC_NODE": 345.2367, "ARG_OF_PERICENTER": 205.9072, "MEAN_ANOMALY": 154.1641, "EPHEMERIS_TYPE": 0, "CLASSIFICATION_TYPE": "U", "NORAD_CAT_ID": 35915, "ELEMENT_SET_NO": 999, "REV_AT_EPOCH": 8012, "BSTAR": 0.0030076362, "MEAN_MOTION_DOT": 0.00023136, "MEAN_MOTION_DDOT": 0}, "tle": {"line1": "1 35915U 97051TY  25341.75157984  .00023136  00000+0  30076-2 0  9998", "line2": "2 35915  86.3429 345.2367 0010174 205.9072 154.1641 14.80542095 80126"}}, "geometry": {"type": "Point", "coordinates": [-21.002162798056435, -42.06460171489439]}}, {"type": "Feature", "properties": {"norad_id": 35918, "name": "IRIDIUM 33 DEB", "group": "iridium-33-debris", "lat": -38.8779690818069, "lon": 72.29554295646844, "alt_km": 745.9881192503872, "timestamp": "2025-12-14T03:55:53.173104+00:00", "meta": {"OBJECT_NAME": "IRIDIUM 33 DEB", "OBJECT_ID": "1997-051UB", "EPOCH": "2025-12-13T00:32:30.278688", "MEAN_MOTION": 14.51250424, "ECCENTRICITY": 0.00275912, "INCLINATION": 86.401, "RA_OF_ASC_NODE": 75.694, "ARG_OF_PERICENTER": 168.7296, "MEAN_ANOMALY": 313.6735, "EPHEMERIS_TYPE": 0, "CLASSIFICATION_TYPE": "U", "NORAD_CAT_ID": 35918, "ELEMENT_SET_NO": 999, "REV_AT_EPOCH": 85211, "BSTAR": 0.0017263949, "MEAN_MOTION_DOT": 6.917e-05, "MEAN_MOTION_DDOT": 0}, "tle": {"line1": "1 35918U 97051UB  25347.02257267  .00006917  00000+0  17264-2 0  9994", "line2": "2 35918  86.4010  75.6940 0027591 168.7296 313.6735 14.51250424852114"}}, "geometry": {"type": "Point", "coordinates": [72.29554295646844, -38.8779690818069]}}, {"type": "Feature", "properties": {"norad_id": 35929, "name": "IRIDIUM 33 DEB", "group": "iridium-33-debris", "lat": -25.94881200525647, "lon": -49.834158607236546, "alt_km": 558.1306855402154, "timestamp": "2025-12-14T03:55:53.173115+00:00", "meta": {"OBJECT_NAME": "IRIDIUM 33 DEB", "OBJECT_ID": "1997-051UN", "EPOCH": "2025-12-13T04:04:15.392640", "MEAN_MOTION": 15.02465932, "ECCENTRICITY": 0.00180763, "INCLINATION": 86.332, "RA_OF_ASC_NODE": 312.4262, "ARG_OF_PERICENTER": 36.0641, "MEAN_ANOMALY": 324.1808, "EPHEMERIS_TYPE": 0, "CLASSIFICATION_TYPE": "U", "NORAD_CAT_ID": 35929, "ELEMENT_SET_NO": 999, "REV_AT_EPOCH": 87786, "BSTAR": 0.0045887968, "MEAN_MOTION_DOT": 0.00061533, "MEAN_MOTION_DDOT": 0}, "tle": {"line1": "1 35929U 97051UN  25347.16962260  .00061533  00000+0  45888-2 0  9995", "line2": "2 35929  86.3320 312.4262 0018076  36.0641 324.1808 15.02465932877863"}}, "geometry": {"type": "Point", "coordinates": [-49.834158607236546, -25.94881200525647]}}]}